     2              NAVIGATION DATA                         RINEX VERSION / TYPE
CCRINEXN V1.6.0 UX  CDDIS               07-SEP-08 02:51     PGM / RUN BY / DATE 
IGS BROADCAST EPHEMERIS FILE                                COMMENT             
    0.6519E-08  0.1490E-07 -0.5960E-07 -0.1192E-06          ION ALPHA           
    0.7782E+05  0.3277E+05 -0.6554E+05 -0.1966E+06          ION BETA            
   -0.279396772385E-08-0.106581410364E-13    61440     1496 DELTA-UTC: A0,A1,T,W
    14                                                      LEAP SECONDS        
                                                            END OF HEADER       
 2 08  9  6  0  0  0.0 0.189555343241E-03-0.284217094304E-11 0.000000000000E+00
    0.160000000000E+02 0.791250000000E+02 0.484448750664E-08-0.277654060675E+01
    0.413879752159E-05 0.874262012076E-02 0.921823084354E-05 0.515377530098E+04
    0.518400000000E+06-0.124797224999E-06-0.192948432304E+01 0.819563865662E-07
    0.942632338158E+00 0.191625000000E+03 0.263680874439E+01-0.795890294883E-08
   -0.121433629627E-09 0.100000000000E+01 0.149500000000E+04 0.000000000000E+00
    0.200000000000E+01 0.000000000000E+00-0.172294676304E-07 0.160000000000E+02
    0.518238000000E+06 0.400000000000E+01 0.000000000000E+00 0.000000000000E+00
 3 08  9  6  0  0  0.0 0.279542524368E-03 0.511590769747E-11 0.000000000000E+00
    0.140000000000E+03-0.255000000000E+02 0.542594029791E-08-0.310896967112E+01
   -0.145286321640E-05 0.111163528636E-01 0.818073749542E-05 0.515369713211E+04
    0.518400000000E+06 0.745058059692E-08-0.307408374896E+01-0.227242708206E-06
    0.926401702406E+00 0.204906250000E+03 0.844190810473E+00-0.820141305035E-08
   -0.120362156424E-09 0.100000000000E+01 0.149500000000E+04 0.000000000000E+00
    0.280000000000E+01 0.000000000000E+00-0.419095158577E-08 0.140000000000E+03
    0.515898000000E+06 0.400000000000E+01 0.000000000000E+00 0.000000000000E+00
 4 08  9  6  0  0  0.0-0.163012649864E-03-0.108002495835E-10 0.000000000000E+00
    0.910000000000E+02 0.759062500000E+02 0.497699302602E-08 0.260131148192E-01
    0.395812094212E-05 0.826460693497E-02 0.830739736557E-05 0.515358294678E+04
    0.518400000000E+06 0.484287738800E-07-0.191075573858E+01 0.521540641785E-07
    0.941902701914E+00 0.207593750000E+03 0.392992986330E+00-0.827998775187E-08
   -0.156077929844E-09 0.100000000000E+01 0.149500000000E+04 0.000000000000E+00
    0.200000000000E+01 0.000000000000E+00-0.605359673500E-08 0.910000000000E+02
    0.513378000000E+06 0.400000000000E+01 0.000000000000E+00 0.000000000000E+00
 5 08  9  6  0  0  0.0 0.123128294945E-03-0.222144080908E-09 0.000000000000E+00
    0.184000000000E+03-0.205000000000E+02 0.513985695282E-08-0.378491747963E+00
   -0.105984508991E-05 0.926926895045E-02 0.667944550514E-05 0.515369276047E+04
    0.518400000000E+06-0.372529029846E-07 0.217705386621E+01 0.119209289551E-06
    0.943396048689E+00 0.248375000000E+03 0.126935805548E+01-0.840499295884E-08
    0.346800159904E-09 0.000000000000E+00 0.149500000000E+04 0.000000000000E+00
    0.800000000000E+01 0.630000000000E+02-0.419095158577E-08 0.184000000000E+03
    0.518340000000E+06 0.400000000000E+01 0.000000000000E+00 0.000000000000E+00
 6 08  9  6  0  0  0.0 0.167267862707E-03-0.795807864051E-12 0.000000000000E+00
    0.750000000000E+02-0.189375000000E+02 0.533236497155E-08-0.507137933108E+00
   -0.108219683170E-05 0.575687095989E-02 0.853091478348E-05 0.515371601677E+04
    0.518400000000E+06-0.838190317154E-07-0.300867032233E+01-0.745058059692E-08
    0.933948924573E+00 0.204937500000E+03-0.158408991897E+01-0.840142138150E-08
   -0.114290474943E-09 0.100000000000E+01 0.149500000000E+04 0.000000000000E+00
    0.280000000000E+01 0.000000000000E+00-0.465661287308E-08 0.750000000000E+02
    0.514146000000E+06 0.400000000000E+01 0.000000000000E+00 0.000000000000E+00
 8 08  9  6  0  0  0.0-0.168770086020E-03-0.159161572810E-11 0.000000000000E+00
    0.790000000000E+02-0.391250000000E+02 0.374265589664E-08 0.108363829830E+01
   -0.193528831005E-05 0.105351074599E-01 0.821612775326E-05 0.515372397614E+04
    0.518400000000E+06 0.143423676491E-06 0.127722755704E+01 0.217929482460E-06
    0.984726951544E+00 0.231156250000E+03 0.290212458982E+01-0.765246161289E-08
    0.266796827444E-09 0.100000000000E+01 0.149500000000E+04 0.000000000000E+00
    0.200000000000E+01 0.000000000000E+00-0.372529029846E-08 0.790000000000E+02
    0.511218000000E+06 0.400000000000E+01 0.000000000000E+00 0.000000000000E+00
 9 08  9  6  0  0  0.0 0.135251320899E-04 0.181898940355E-11 0.000000000000E+00
    0.540000000000E+02-0.438437500000E+02 0.411731448935E-08 0.718290739075E+00
   -0.240467488766E-05 0.201541803544E-01 0.844337046146E-05 0.515366469002E+04
    0.518400000000E+06-0.260770320892E-06 0.118638139030E+01-0.987201929092E-07
    0.972603649943E+00 0.228781250000E+03 0.143895637351E+01-0.816641154699E-08
    0.133934155433E-09 0.100000000000E+01 0.149500000000E+04 0.000000000000E+00
    0.280000000000E+01 0.000000000000E+00-0.558793544769E-08 0.540000000000E+02
    0.511218000000E+06 0.400000000000E+01 0.000000000000E+00 0.000000000000E+00
10 08  9  6  0  0  0.0-0.454718247056E-05-0.341060513165E-12 0.000000000000E+00
    0.102000000000E+03 0.556875000000E+02 0.460162041804E-08-0.185937060207E+01
    0.288523733616E-05 0.800462334883E-02 0.376626849175E-05 0.515369845963E+04
    0.518400000000E+06 0.484287738800E-07-0.846464482140E+00-0.100582838059E-06
    0.962013847830E+00 0.308531250000E+03 0.556828262932E+00-0.817891177007E-08
   -0.164292555255E-10 0.100000000000E+01 0.149500000000E+04 0.000000000000E+00
    0.200000000000E+01 0.000000000000E+00-0.232830643654E-08 0.102000000000E+03
    0.518400000000E+06 0.000000000000E+00 0.000000000000E+00 0.000000000000E+00
11 08  9  6  0  0  0.0 0.203796662390E-04-0.682121026330E-12 0.000000000000E+00
    0.950000000000E+02 0.574375000000E+02 0.625133182163E-08 0.153195813394E+01
    0.312551856041E-05 0.842727941927E-02 0.880099833012E-05 0.515365018463E+04
    0.518400000000E+06-0.113621354103E-06-0.211635249725E+01 0.193715095520E-06
    0.890631156603E+00 0.172906250000E+03 0.608176958154E+00-0.883429655534E-08
   -0.142863093678E-09 0.100000000000E+01 0.149500000000E+04 0.000000000000E+00
    0.280000000000E+01 0.000000000000E+00-0.121071934700E-07 0.950000000000E+02
    0.511218000000E+06 0.400000000000E+01 0.000000000000E+00 0.000000000000E+00
12 08  9  6  0  0  0.0-0.352071132511E-03 0.147792889038E-11 0.000000000000E+00
    0.200000000000E+02-0.241250000000E+02 0.460769200572E-08 0.196887867492E+01
   -0.138022005558E-05 0.316050823312E-02 0.657886266708E-05 0.515352686310E+04
    0.518400000000E+06 0.633299350738E-07 0.227278075922E+01 0.409781932831E-07
    0.964607866372E+00 0.258437500000E+03-0.862265176508E+00-0.792818699580E-08
    0.256796417464E-09 0.100000000000E+01 0.149500000000E+04 0.000000000000E+00
    0.200000000000E+01 0.000000000000E+00-0.116415321827E-07 0.200000000000E+02
    0.511218000000E+06 0.400000000000E+01 0.000000000000E+00 0.000000000000E+00
13 08  9  6  0  0  0.0 0.270156655461E-03 0.125055521494E-11 0.000000000000E+00
    0.440000000000E+02-0.511250000000E+02 0.359872132976E-08-0.221507668558E+01
   -0.263750553131E-05 0.372863677330E-02 0.624172389507E-05 0.515358480263E+04
    0.518400000000E+06 0.409781932831E-07 0.225136667263E+00 0.149011611938E-07
    0.995746971533E+00 0.279250000000E+03 0.154577271514E+01-0.766710507999E-08
   -0.225009372544E-09 0.100000000000E+01 0.149500000000E+04 0.000000000000E+00
    0.200000000000E+01 0.000000000000E+00-0.111758708954E-07 0.440000000000E+02
    0.511218000000E+06 0.400000000000E+01 0.000000000000E+00 0.000000000000E+00
14 08  9  6  0  0  0.0-0.223330222070E-03 0.466116034659E-11 0.000000000000E+00
    0.670000000000E+02-0.496250000000E+02 0.365765240318E-08-0.243060817652E+01
   -0.243820250034E-05 0.412610510830E-02 0.584870576859E-05 0.515373171997E+04
    0.518400000000E+06-0.111758708954E-07 0.207250634375E+00-0.707805156708E-07
    0.989425926338E+00 0.282906250000E+03-0.218713532038E+01-0.765210472764E-08
   -0.130719726710E-09 0.100000000000E+01 0.149500000000E+04 0.000000000000E+00
    0.200000000000E+01 0.000000000000E+00-0.931322574616E-08 0.670000000000E+02
    0.511218000000E+06 0.400000000000E+01 0.000000000000E+00 0.000000000000E+00
15 08  9  6  0  0  0.0-0.172383151948E-03-0.648014975013E-11 0.000000000000E+00
    0.800000000000E+02-0.452500000000E+02 0.450125892115E-08-0.155577983259E+01
   -0.234879553318E-05 0.839136191644E-03 0.485405325890E-05 0.515369888687E+04
    0.518400000000E+06 0.204890966415E-07 0.163064225148E+00 0.596046447754E-07
    0.957711413073E+00 0.285156250000E+03-0.119968831259E+01-0.823962853502E-08
   -0.178221715164E-09 0.100000000000E+01 0.149500000000E+04 0.000000000000E+00
    0.200000000000E+01 0.000000000000E+00-0.977888703346E-08 0.800000000000E+02
    0.518400000000E+06 0.000000000000E+00 0.000000000000E+00 0.000000000000E+00
16 08  9  6  0  0  0.0 0.108487438410E-03-0.193267624127E-11 0.000000000000E+00
    0.420000000000E+02-0.208125000000E+02 0.456126159065E-08-0.630272196955E+00
   -0.127777457237E-05 0.472325226292E-02 0.627338886261E-05 0.515365933609E+04
    0.518400000000E+06-0.130385160446E-07 0.228932139170E+01-0.102445483208E-06
    0.966243524355E+00 0.257812500000E+03-0.407032437049E+00-0.807176459006E-08
    0.280368811501E-09 0.100000000000E+01 0.149500000000E+04 0.000000000000E+00
    0.200000000000E+01 0.000000000000E+00-0.977888703346E-08 0.420000000000E+02
    0.518400000000E+06 0.000000000000E+00 0.000000000000E+00 0.000000000000E+00
